{
  "norad_id": 68180,
  "name": "STARLINK-37035",
  "history": [
    {
      "epoch": "2026-03-28T18:30:53.154720Z",
      "apogee_km": 328.0764640044463,
      "perigee_km": 327.3790540695063,
      "latitude_deg": 1.9543868633892244e-05,
      "longitude_deg": 82.18812629565423,
      "height_km": 328.56799202876147,
      "semi_major_axis_km": 6705.8647590369765,
      "eccentricity": 5.2e-05,
      "inclination_deg": 53.1593,
      "raan_deg": 186.0967,
      "arg_perigee_deg": 76.9954,
      "mean_anomaly_deg": 283.1127,
      "mean_motion_rev_day": 15.80958887
    },
    {
      "epoch": "2026-03-29T03:37:06.735360Z",
      "apogee_km": 328.9875679054812,
      "perigee_km": 326.5881879841527,
      "latitude_deg": -1.045849800789756e-05,
      "longitude_deg": -56.643260715346145,
      "height_km": 327.5372398061257,
      "semi_major_axis_km": 6705.924877944816,
      "eccentricity": 0.0001789,
      "inclination_deg": 53.159,
      "raan_deg": 184.1958,
      "arg_perigee_deg": 12.8896,
      "mean_anomaly_deg": 347.2172,
      "mean_motion_rev_day": 15.80937627
    },
    {
      "epoch": "2026-03-29T23:20:35.756448Z",
      "apogee_km": 329.6984959979827,
      "perigee_km": 325.6535495826347,
      "latitude_deg": 7.692142935718163e-06,
      "longitude_deg": 2.557966226350043,
      "height_km": 327.8477998556784,
      "semi_major_axis_km": 6705.813022790308,
      "eccentricity": 0.0003016,
      "inclination_deg": 53.1595,
      "raan_deg": 180.078,
      "arg_perigee_deg": 68.4248,
      "mean_anomaly_deg": 291.7096,
      "mean_motion_rev_day": 15.80977183
    },
    {
      "epoch": "2026-03-30T05:24:43.924032Z",
      "apogee_km": 328.4549955561424,
      "perigee_km": 327.0088078687995,
      "latitude_deg": -8.566203495578719e-06,
      "longitude_deg": -89.99321953335499,
      "height_km": 328.876695084489,
      "semi_major_axis_km": 6705.868901712471,
      "eccentricity": 0.00010783,
      "inclination_deg": 53.1591,
      "raan_deg": 178.8101,
      "arg_perigee_deg": 108.2785,
      "mean_anomaly_deg": 251.8355,
      "mean_motion_rev_day": 15.80957422
    },
    {
      "epoch": "2026-03-30T12:59:54.704832Z",
      "apogee_km": 328.2468040489075,
      "perigee_km": 327.2352894043388,
      "latitude_deg": 2.7102442811126338e-05,
      "longitude_deg": 154.31652798445364,
      "height_km": 328.41886484044187,
      "semi_major_axis_km": 6705.878046726623,
      "eccentricity": 7.542e-05,
      "inclination_deg": 53.1591,
      "raan_deg": 177.2263,
      "arg_perigee_deg": 61.5856,
      "mean_anomaly_deg": 298.5243,
      "mean_motion_rev_day": 15.80954188
    },
    {
      "epoch": "2026-03-30T17:33:01.146528Z",
      "apogee_km": 328.57802512536364,
      "perigee_km": 326.8043335719258,
      "latitude_deg": 3.0387834346311135e-05,
      "longitude_deg": 84.90195490473897,
      "height_km": 328.255579386167,
      "semi_major_axis_km": 6705.828179348644,
      "eccentricity": 0.00013225,
      "inclination_deg": 53.159,
      "raan_deg": 176.2755,
      "arg_perigee_deg": 66.5196,
      "mean_anomaly_deg": 293.5966,
      "mean_motion_rev_day": 15.80971823
    },
    {
      "epoch": "2026-03-31T16:18:33.778368Z",
      "apogee_km": 328.1219928611099,
      "perigee_km": 327.18050019129805,
      "latitude_deg": 2.1115422945451306e-05,
      "longitude_deg": 97.82900169912078,
      "height_km": 328.76801610697436,
      "semi_major_axis_km": 6705.788246526204,
      "eccentricity": 7.02e-05,
      "inclination_deg": 53.1589,
      "raan_deg": 171.5232,
      "arg_perigee_deg": 114.9096,
      "mean_anomaly_deg": 245.2,
      "mean_motion_rev_day": 15.80985945
    },
    {
      "epoch": "2026-04-01T16:35:08.081664Z",
      "apogee_km": 328.61617047736854,
      "perigee_km": 326.63662912174823,
      "latitude_deg": -1.828203803361048e-05,
      "longitude_deg": 87.61985533296745,
      "height_km": 328.2513905471809,
      "semi_major_axis_km": 6705.763399799558,
      "eccentricity": 0.0001476,
      "inclination_deg": 53.1583,
      "raan_deg": 166.454,
      "arg_perigee_deg": 72.8155,
      "mean_anomaly_deg": 287.3029,
      "mean_motion_rev_day": 15.80994732
    },
    {
      "epoch": "2026-04-02T15:20:39.540192Z",
      "apogee_km": 328.26738723892504,
      "perigee_km": 326.8538261834301,
      "latitude_deg": 3.489906680145522e-05,
      "longitude_deg": 100.55145040337193,
      "height_km": 328.2434556610537,
      "semi_major_axis_km": 6705.697606711177,
      "eccentricity": 0.0001054,
      "inclination_deg": 53.1582,
      "raan_deg": 161.7013,
      "arg_perigee_deg": 70.5692,
      "mean_anomaly_deg": 289.5445,
      "mean_motion_rev_day": 15.81018
    },
    {
      "epoch": "2026-04-02T21:24:48.099168Z",
      "apogee_km": 329.0853941963924,
      "perigee_km": 325.47774489760377,
      "latitude_deg": -4.3161058240906674e-05,
      "longitude_deg": 7.999083236775883,
      "height_km": 327.3825509093467,
      "semi_major_axis_km": 6705.418569546998,
      "eccentricity": 0.00026901,
      "inclination_deg": 53.1578,
      "raan_deg": 160.4339,
      "arg_perigee_deg": 63.1394,
      "mean_anomaly_deg": 296.9903,
      "mean_motion_rev_day": 15.81116689
    },
    {
      "epoch": "2026-04-03T15:37:15.880800Z",
      "apogee_km": 328.5835329891961,
      "perigee_km": 327.2637802519739,
      "latitude_deg": -8.842477997644656e-06,
      "longitude_deg": 90.3339876596828,
      "height_km": 329.2663345703257,
      "semi_major_axis_km": 6706.060656620585,
      "eccentricity": 9.84e-05,
      "inclination_deg": 53.1577,
      "raan_deg": 156.6323,
      "arg_perigee_deg": 130.0386,
      "mean_anomaly_deg": 230.0723,
      "mean_motion_rev_day": 15.80889613
    },
    {
      "epoch": "2026-04-04T20:26:56.892768Z",
      "apogee_km": 328.59501228355566,
      "perigee_km": 327.15590201025134,
      "latitude_deg": -4.815262788528974e-06,
      "longitude_deg": 10.709080314637667,
      "height_km": 328.6001597610917,
      "semi_major_axis_km": 6706.012457146903,
      "eccentricity": 0.0001073,
      "inclination_deg": 53.1567,
      "raan_deg": 150.6122,
      "arg_perigee_deg": 74.4404,
      "mean_anomaly_deg": 285.6737,
      "mean_motion_rev_day": 15.80906657
    },
    {
      "epoch": "2026-04-05T13:08:20.674464Z",
      "apogee_km": 328.45131576757285,
      "perigee_km": 326.8435368935161,
      "latitude_deg": 8.116218322234999e-06,
      "longitude_deg": 116.18916697437321,
      "height_km": 328.4615953236207,
      "semi_major_axis_km": 6705.784426330544,
      "eccentricity": 0.00011988,
      "inclination_deg": 53.1566,
      "raan_deg": 147.1268,
      "arg_perigee_deg": 82.6131,
      "mean_anomaly_deg": 277.5028,
      "mean_motion_rev_day": 15.80987296
    },
    {
      "epoch": "2026-04-05T20:43:30.942912Z",
      "apogee_km": 328.72403598673463,
      "perigee_km": 326.3046369845306,
      "latitude_deg": -1.5359212874070405e-05,
      "longitude_deg": 0.5005101423918309,
      "height_km": 328.3739214895913,
      "semi_major_axis_km": 6705.651336485632,
      "eccentricity": 0.0001804,
      "inclination_deg": 53.1565,
      "raan_deg": 145.5425,
      "arg_perigee_deg": 87.2949,
      "mean_anomaly_deg": 272.828,
      "mean_motion_rev_day": 15.81034364
    },
    {
      "epoch": "2026-04-06T05:49:43.903200Z",
      "apogee_km": 328.67551705855203,
      "perigee_km": 327.0849838870845,
      "latitude_deg": -1.3797080375900787e-05,
      "longitude_deg": -138.32856231107326,
      "height_km": 328.7394736915236,
      "semi_major_axis_km": 6706.017250472818,
      "eccentricity": 0.00011859,
      "inclination_deg": 53.1565,
      "raan_deg": 143.6413,
      "arg_perigee_deg": 85.7982,
      "mean_anomaly_deg": 274.3176,
      "mean_motion_rev_day": 15.80904962
    },
    {
      "epoch": "2026-04-07T19:45:38.115648Z",
      "apogee_km": 328.85017167601745,
      "perigee_km": 326.422681695557,
      "latitude_deg": -6.936688069921981e-06,
      "longitude_deg": 3.2165526877034596,
      "height_km": 328.5411834608812,
      "semi_major_axis_km": 6705.773426685787,
      "eccentricity": 0.000181,
      "inclination_deg": 53.156,
      "raan_deg": 135.7201,
      "arg_perigee_deg": 89.4413,
      "mean_anomaly_deg": 270.6817,
      "mean_motion_rev_day": 15.80991186
    },
    {
      "epoch": "2026-04-08T10:56:32.186976Z",
      "apogee_km": 333.89492863865235,
      "perigee_km": 331.95355284292964,
      "latitude_deg": -4.798420489083784e-06,
      "longitude_deg": 131.7018654460381,
      "height_km": 334.40394215808334,
      "semi_major_axis_km": 6711.061240740791,
      "eccentricity": 0.00014464,
      "inclination_deg": 53.156,
      "raan_deg": 132.5542,
      "arg_perigee_deg": 125.4477,
      "mean_anomaly_deg": 234.668,
      "mean_motion_rev_day": 15.79123
    },
    {
      "epoch": "2026-04-09T20:00:01.999008Z",
      "apogee_km": 351.45235527959903,
      "perigee_km": 350.1630894707914,
      "latitude_deg": -51.71681714878853,
      "longitude_deg": -121.66511812861792,
      "height_km": 369.3565989911867,
      "semi_major_axis_km": 6728.944722375195,
      "eccentricity": 9.58e-05,
      "inclination_deg": 53.1593,
      "raan_deg": 125.7001,
      "arg_perigee_deg": 83.1168,
      "mean_anomaly_deg": 175.008,
      "mean_motion_rev_day": 15.72831944
    },
    {
      "epoch": "2026-04-10T12:00:02.000160Z",
      "apogee_km": 359.66713840132707,
      "perigee_km": 358.08394045456134,
      "latitude_deg": 49.60602836752148,
      "longitude_deg": 164.77731767212762,
      "height_km": 363.8120153463063,
      "semi_major_axis_km": 6737.012539427944,
      "eccentricity": 0.0001175,
      "inclination_deg": 53.1592,
      "raan_deg": 122.407,
      "arg_perigee_deg": 60.8278,
      "mean_anomaly_deg": 10.885,
      "mean_motion_rev_day": 15.70007505
    }
  ]
}